{"type":"FeatureCollection","features":[{"type":"Feature","properties":{"@id":"e2d344f0-585f-11f1-9a05-b127bcfb6eae"},"geometry":{"type":"LineString","coordinates":[[9.658482,45.706256],[9.658602,45.706451],[9.659215,45.706269],[9.659271,45.706244],[9.659318,45.706238],[9.659415,45.706229],[9.659992,45.706231],[9.660052,45.706229],[9.660104,45.706217],[9.660195,45.706172],[9.660395,45.706072],[9.660586,45.706019],[9.660827,45.705968],[9.66102,45.705927],[9.661084,45.705917],[9.661145,45.705915],[9.661205,45.705923],[9.661266,45.705945],[9.661325,45.70597],[9.661445,45.706002],[9.661672,45.706062],[9.662172,45.706066],[9.662269,45.706067],[9.662456,45.706087],[9.662748,45.706127],[9.662912,45.706143],[9.663144,45.706143],[9.663273,45.706119],[9.663539,45.706041],[9.664046,45.705884],[9.664296,45.705828],[9.664386,45.70583],[9.664446,45.705868],[9.664438,45.705885],[9.664169,45.706049],[9.664152,45.706084],[9.664271,45.706326],[9.664316,45.706399],[9.66449,45.706502],[9.664552,45.706542],[9.664671,45.706581],[9.664737,45.706598],[9.664817,45.7066],[9.664871,45.706596],[9.664931,45.706589],[9.665047,45.70655],[9.665297,45.706434],[9.665891,45.706179],[9.666,45.7061],[9.66603,45.706041],[9.666135,45.70605],[9.666857,45.706002],[9.667736,45.70595],[9.66807,45.705925],[9.668117,45.705922],[9.668666,45.705719],[9.668795,45.705669],[9.669232,45.705519],[9.669438,45.705454],[9.669917,45.705377],[9.670399,45.705276],[9.670568,45.705194],[9.67086,45.704976],[9.6711,45.704773],[9.671194,45.704719],[9.67158,45.704558],[9.671685,45.704481],[9.671729,45.70443],[9.67176,45.704378],[9.671778,45.704305],[9.671758,45.704181],[9.671676,45.703892],[9.67161,45.703678],[9.671571,45.703594],[9.671516,45.703512],[9.671412,45.703409],[9.671343,45.703361],[9.671249,45.703308],[9.671134,45.703255],[9.670985,45.70322],[9.670752,45.703191],[9.670006,45.703096],[9.668592,45.702915],[9.667362,45.702753],[9.667063,45.702681],[9.66675,45.702588],[9.666063,45.702389],[9.665455,45.702207],[9.66486,45.702042],[9.664735,45.702015],[9.664222,45.701974],[9.664096,45.701936],[9.663425,45.701548],[9.663247,45.701461],[9.663144,45.701436],[9.662986,45.701425],[9.662907,45.701397],[9.66287,45.701353],[9.662775,45.701123],[9.662626,45.700993],[9.662526,45.700948],[9.662432,45.700937],[9.662333,45.700953],[9.662243,45.700982],[9.662172,45.701026],[9.662143,45.701079],[9.661997,45.701532],[9.661943,45.701704],[9.661906,45.70176],[9.66186,45.701801],[9.661807,45.701848],[9.661322,45.702189],[9.660579,45.70271],[9.65988,45.703132],[9.65865,45.703841],[9.658377,45.703993],[9.658067,45.704143],[9.657443,45.704412],[9.657386,45.704436],[9.657365,45.704461],[9.657361,45.704502],[9.657373,45.704539],[9.657399,45.704579],[9.657876,45.705316],[9.658281,45.705961],[9.658482,45.706256],[9.658482,45.706256]]}}]}